[{"OBJECT_NAME":"OBJECT F","OBJECT_ID":"2023-072F","EPOCH":"2026-03-09T23:31:37.259904","MEAN_MOTION":15.29470958,"ECCENTRICITY":0.00062878,"INCLINATION":97.5173,"RA_OF_ASC_NODE":265.798,"ARG_OF_PERICENTER":19.0017,"MEAN_ANOMALY":341.1456,"EPHEMERIS_TYPE":0,"CLASSIFICATION_TYPE":"U","NORAD_CAT_ID":56748,"ELEMENT_SET_NO":999,"REV_AT_EPOCH":15460,"BSTAR":0.00043416252,"MEAN_MOTION_DOT":0.00012341,"MEAN_MOTION_DDOT":0},{"OBJECT_NAME":"STARLINK-31248","OBJECT_ID":"2024-017Q","EPOCH":"2026-03-09T17:16:54.591456","MEAN_MOTION":15.30189376,"ECCENTRICITY":0.000143,"INCLINATION":53.1607,"RA_OF_ASC_NODE":216.74,"ARG_OF_PERICENTER":90.1158,"MEAN_ANOMALY":270.0006,"EPHEMERIS_TYPE":0,"CLASSIFICATION_TYPE":"U","NORAD_CAT_ID":58840,"ELEMENT_SET_NO":999,"REV_AT_EPOCH":11999,"BSTAR":-8.049993e-6,"MEAN_MOTION_DOT":-5.98e-6,"MEAN_MOTION_DDOT":0}]
